IRIDIUM 106             
1 41917U 17003A   26164.25821990  .00000009  00000+0 -37842-5 0  9996
2 41917  86.3962  90.1986 0001783  83.1177 277.0222 14.34217537492641
IRIDIUM 103             
1 41918U 17003B   26164.24553577  .00000065  00000+0  16216-4 0  9991
2 41918  86.3961  90.1037 0002363  78.4931 281.6530 14.34217617492662
IRIDIUM 109             
1 41919U 17003C   26164.25187829  .00000003  00000+0 -59946-5 0  9997
2 41919  86.3962  90.1605 0002178  82.9575 277.1869 14.34217505492631
IRIDIUM 102             
1 41920U 17003D   26164.22016543  .00000035  00000+0  53340-5 0  9996
2 41920  86.3961  90.0972 0002229  85.8775 274.2676 14.34217659492712
IRIDIUM 105             
1 41921U 17003E   26164.24853345  .00000143  00000+0  44034-4 0  9997
2 41921  86.3969  58.5170 0002524  84.0170 276.1313 14.34218303494570
IRIDIUM 104             
1 41922U 17003F   26164.30261941  .00000067  00000+0  16898-4 0  9992
2 41922  86.3963  90.1054 0002498  81.8790 278.2689 14.34217889492712
IRIDIUM 114             
1 41923U 17003G   26164.23919334  .00000018  00000+0 -64276-6 0  9993
2 41923  86.3961  90.1152 0002255  81.0865 279.0586 14.34217538492688
IRIDIUM 108             
1 41924U 17003H   26164.19771435  .00000068  00000+0  17306-4 0  9991
2 41924  86.3964  58.4286 0002252  86.9052 273.2402 14.34217798494533
IRIDIUM 112             
1 41925U 17003J   26164.29627631  .00000059  00000+0  14109-4 0  9999
2 41925  86.3959  89.9335 0002346  84.4032 275.7431 14.34217651492712
IRIDIUM 111             
1 41926U 17003K   26164.21383038  .00000154  00000+0  48054-4 0  9994
2 41926  86.3961  90.0384 0002258  82.1988 277.9464 14.34216050492688
IRIDIUM 113             
1 42803U 17039A   26164.19378729  .00000037  00000+0  60618-5 0  9997
2 42803  86.3967 323.8484 0002297  89.3113 270.8346 14.34217715470618
IRIDIUM 123             
1 42804U 17039B   26164.23526474  .00000011  00000+0 -30538-5 0  9996
2 42804  86.3968 355.2896 0001934  84.4883 275.6534 14.34216946469382
IRIDIUM 120             
1 42805U 17039C   26164.18743888  .00000221  00000+0  71945-4 0  9999
2 42805  86.3955 323.6340 0002004  94.2008 265.9417 14.34214961470603
IRIDIUM 115             
1 42806U 17039D   26164.16671153  .00000205  00000+0  55025-4 0  9996
2 42806  86.4492 323.7709 0001995  88.2751 271.8678 14.43281757473680
IRIDIUM 118             
1 42807U 17039E   26164.26697822  .00000105  00000+0  30471-4 0  9996
2 42807  86.3971 355.2745 0002201  88.5430 271.6018 14.34218067469382
IRIDIUM 117             
1 42808U 17039F   26164.28600586  .00000080  00000+0  21417-4 0  9992
2 42808  86.3970 355.2242 0002131  86.1968 273.9471 14.34218126469414
IRIDIUM 126             
1 42809U 17039G   26164.24160790  .00000009  00000+0 -36899-5 0  9990
2 42809  86.3967 355.2937 0002121  85.6004 274.5434 14.34217242469386
IRIDIUM 124             
1 42810U 17039H   26164.30852561  .00000278  00000+0  76666-4 0  9995
2 42810  86.4479 291.9808 0002173  92.7324 267.4126 14.43280201474550
IRIDIUM 128             
1 42811U 17039J   26164.09280914  .00000055  00000+0  12570-4 0  9996
2 42811  86.3971  26.8623 0001986  86.6208 273.5215 14.34217823469394
IRIDIUM 121             
1 42812U 17039K   26164.26063583  .00000179  00000+0  56875-4 0  9990
2 42812  86.3971 355.3135 0002121  90.6499 269.4940 14.34218013469269
IRIDIUM 133             
1 42955U 17061A   26164.12451989  .00000093  00000+0  26246-4 0  9993
2 42955  86.3973  26.9667 0002109  85.8450 274.2987 14.34217340454192
IRIDIUM 100             
1 42956U 17061B   26164.11817683  .00000187  00000+0  59589-4 0  9990
2 42956  86.3970  26.8881 0002179  86.9125 273.2320 14.34216728454194
IRIDIUM 122             
1 42957U 17061C   26164.08646689 -.00000028  00000+0 -17121-4 0  9995
2 42957  86.3966  26.9013 0002097  83.7938 276.3496 14.34217256454199
IRIDIUM 129             
1 42958U 17061D   26164.11183762  .00000110  00000+0  32128-4 0  9992
2 42958  86.3972  26.9582 0002443  87.0922 273.0553 14.34217839454211
IRIDIUM 119             
1 42959U 17061E   26164.08012423  .00000055  00000+0  12719-4 0  9996
2 42959  86.3972  26.9671 0002251  83.9054 276.2399 14.34217861454228
IRIDIUM 107             
1 42960U 17061F   26164.16892001 -.00000006  00000+0 -92482-5 0  9999
2 42960  86.3968  26.9509 0001857  80.8032 279.3373 14.34217268454247
IRIDIUM 132             
1 42961U 17061G   26164.17526305  .00000049  00000+0  10538-4 0  9998
2 42961  86.3972  26.9280 0002207  85.0820 275.0628 14.34217324454240
IRIDIUM 136             
1 42962U 17061H   26164.13721995  .00000208  00000+0  67361-4 0  9990
2 42962  86.3980  26.9505 0002496  91.3202 268.8279 14.34214964454254
IRIDIUM 139             
1 42963U 17061J   26164.14355008  .00000061  00000+0  14571-4 0  9992
2 42963  86.3973  27.0097 0002063  86.8151 273.3280 14.34217713454266
IRIDIUM 125             
1 42964U 17061K   26164.13086492  .00000071  00000+0  18140-4 0  9997
2 42964  86.3976  27.0760 0002332  74.2025 285.9428 14.34217949454272
