OBJECT_NAME,OBJECT_ID,EPOCH,MEAN_MOTION,ECCENTRICITY,INCLINATION,RA_OF_ASC_NODE,ARG_OF_PERICENTER,MEAN_ANOMALY,EPHEMERIS_TYPE,CLASSIFICATION_TYPE,NORAD_CAT_ID,ELEMENT_SET_NO,REV_AT_EPOCH,BSTAR,MEAN_MOTION_DOT,MEAN_MOTION_DDOT
IRIDIUM 106,2017-003A,2026-06-13T06:11:50.199360,14.34217537,.00017836,86.3962,90.1986,83.1177,277.0222,0,U,41917,999,49264,-.3784157E-5,.9E-7,0
IRIDIUM 103,2017-003B,2026-06-13T05:53:34.290528,14.34217617,.00023631,86.3961,90.1037,78.4931,281.6530,0,U,41918,999,49266,.16215588E-4,.65E-6,0
IRIDIUM 109,2017-003C,2026-06-13T06:02:42.284256,14.34217505,.00021784,86.3962,90.1605,82.9575,277.1869,0,U,41919,999,49263,-.5994576E-5,.3E-7,0
IRIDIUM 102,2017-003D,2026-06-13T05:17:02.293152,14.34217659,.00022292,86.3961,90.0972,85.8775,274.2676,0,U,41920,999,49271,.5333961E-5,.35E-6,0
IRIDIUM 105,2017-003E,2026-06-13T05:57:53.290080,14.34218303,.00025244,86.3969,58.5170,84.0170,276.1313,0,U,41921,999,49457,.44034139E-4,.143E-5,0
IRIDIUM 104,2017-003F,2026-06-13T07:15:46.317024,14.34217889,.00024989,86.3963,90.1054,81.8790,278.2689,0,U,41922,999,49271,.16897766E-4,.67E-6,0
IRIDIUM 114,2017-003G,2026-06-13T05:44:26.304576,14.34217538,.0002255,86.3961,90.1152,81.0865,279.0586,0,U,41923,999,49268,-.642755E-6,.18E-6,0
IRIDIUM 108,2017-003H,2026-06-13T04:44:42.519840,14.34217798,.00022525,86.3964,58.4286,86.9052,273.2402,0,U,41924,999,49453,.1730578E-4,.68E-6,0
IRIDIUM 112,2017-003J,2026-06-13T07:06:38.273184,14.34217651,.00023466,86.3959,89.9335,84.4032,275.7431,0,U,41925,999,49271,.14109398E-4,.59E-6,0
IRIDIUM 111,2017-003K,2026-06-13T05:07:54.944832,14.34216050,.00022586,86.3961,90.0384,82.1988,277.9464,0,U,41926,999,49268,.48053811E-4,.154E-5,0
IRIDIUM 113,2017-039A,2026-06-13T04:39:03.221856,14.34217715,.00022977,86.3967,323.8484,89.3113,270.8346,0,U,42803,999,47061,.6061777E-5,.37E-6,0
IRIDIUM 123,2017-039B,2026-06-13T05:38:46.873536,14.34216946,.00019344,86.3968,355.2896,84.4883,275.6534,0,U,42804,999,46938,-.3053765E-5,.11E-6,0
IRIDIUM 120,2017-039C,2026-06-13T04:29:54.719232,14.34214961,.00020044,86.3955,323.6340,94.2008,265.9417,0,U,42805,999,47060,.71945053E-4,.221E-5,0
IRIDIUM 115,2017-039D,2026-06-13T04:00:03.876192,14.43281757,.00019953,86.4492,323.7709,88.2751,271.8678,0,U,42806,999,47368,.55024973E-4,.205E-5,0
IRIDIUM 118,2017-039E,2026-06-13T06:24:26.918208,14.34218067,.00022011,86.3971,355.2745,88.5430,271.6018,0,U,42807,999,46938,.30471411E-4,.105E-5,0
IRIDIUM 117,2017-039F,2026-06-13T06:51:50.906304,14.34218126,.00021318,86.3970,355.2242,86.1968,273.9471,0,U,42808,999,46941,.21417257E-4,.8E-6,0
IRIDIUM 126,2017-039G,2026-06-13T05:47:54.922560,14.34217242,.00021219,86.3967,355.2937,85.6004,274.5434,0,U,42809,999,46938,-.3689858E-5,.9E-7,0
IRIDIUM 124,2017-039H,2026-06-13T07:24:16.612704,14.43280201,.00021731,86.4479,291.9808,92.7324,267.4126,0,U,42810,999,47455,.76665541E-4,.278E-5,0
IRIDIUM 128,2017-039J,2026-06-13T02:13:38.709696,14.34217823,.00019861,86.3971,26.8623,86.6208,273.5215,0,U,42811,999,46939,.12570237E-4,.55E-6,0
IRIDIUM 121,2017-039K,2026-06-13T06:15:18.935712,14.34218013,.00021218,86.3971,355.3135,90.6499,269.4940,0,U,42812,999,46926,.56874647E-4,.179E-5,0
IRIDIUM 133,2017-061A,2026-06-13T02:59:18.518496,14.34217340,.00021095,86.3973,26.9667,85.8450,274.2987,0,U,42955,999,45419,.26245648E-4,.93E-6,0
IRIDIUM 100,2017-061B,2026-06-13T02:50:10.478112,14.34216728,.0002179,86.3970,26.8881,86.9125,273.2320,0,U,42956,999,45419,.5958931E-4,.187E-5,0
IRIDIUM 122,2017-061C,2026-06-13T02:04:30.739296,14.34217256,.00020974,86.3966,26.9013,83.7938,276.3496,0,U,42957,999,45419,-.17121291E-4,-.28E-6,0
IRIDIUM 129,2017-061D,2026-06-13T02:41:02.770368,14.34217839,.00024432,86.3972,26.9582,87.0922,273.0553,0,U,42958,999,45421,.32128192E-4,.11E-5,0
IRIDIUM 119,2017-061E,2026-06-13T01:55:22.733472,14.34217861,.00022515,86.3972,26.9671,83.9054,276.2399,0,U,42959,999,45422,.12718544E-4,.55E-6,0
IRIDIUM 107,2017-061F,2026-06-13T04:03:14.688864,14.34217268,.0001857,86.3968,26.9509,80.8032,279.3373,0,U,42960,999,45424,-.9248197E-5,-.6E-7,0
IRIDIUM 132,2017-061G,2026-06-13T04:12:22.727520,14.34217324,.00022075,86.3972,26.9280,85.0820,275.0628,0,U,42961,999,45424,.1053761E-4,.49E-6,0
IRIDIUM 136,2017-061H,2026-06-13T03:17:35.803680,14.34214964,.00024964,86.3980,26.9505,91.3202,268.8279,0,U,42962,999,45425,.67361369E-4,.208E-5,0
IRIDIUM 139,2017-061J,2026-06-13T03:26:42.726912,14.34217713,.0002063,86.3973,27.0097,86.8151,273.3280,0,U,42963,999,45426,.14571147E-4,.61E-6,0
IRIDIUM 125,2017-061K,2026-06-13T03:08:26.729088,14.34217949,.00023328,86.3976,27.0760,74.2025,285.9428,0,U,42964,999,45427,.18140396E-4,.71E-6,0
